[Satellite]
VERSION=1.1
NAME=TRITON-1
NICKNAME=TRITON-1
TLE1=1 39427U 13066M   19317.03756003  .00000221  00000-0  42840-4 0  9993
TLE2=2 39427  97.6958 285.4591 0114971  54.1488 307.0332 14.67904064319954
STATUS=0
